[{"OBJECT_NAME":"CHAMRAN-1","OBJECT_ID":"2024-165B","EPOCH":"2026-03-09T21:50:33.228384","MEAN_MOTION":15.10235792,"ECCENTRICITY":0.0045019,"INCLINATION":64.0789,"RA_OF_ASC_NODE":8.4365,"ARG_OF_PERICENTER":310.8781,"MEAN_ANOMALY":48.8437,"EPHEMERIS_TYPE":0,"CLASSIFICATION_TYPE":"U","NORAD_CAT_ID":61072,"ELEMENT_SET_NO":999,"REV_AT_EPOCH":8166,"BSTAR":0.0004432,"MEAN_MOTION_DOT":7.263e-5,"MEAN_MOTION_DDOT":0},{"OBJECT_NAME":"GEESAT-4 04","OBJECT_ID":"2025-170D","EPOCH":"2026-03-09T23:17:55.914720","MEAN_MOTION":15.1505395,"ECCENTRICITY":0.00176751,"INCLINATION":49.9794,"RA_OF_ASC_NODE":229.0049,"ARG_OF_PERICENTER":290.2477,"MEAN_ANOMALY":69.6574,"EPHEMERIS_TYPE":0,"CLASSIFICATION_TYPE":"U","NORAD_CAT_ID":65122,"ELEMENT_SET_NO":999,"REV_AT_EPOCH":3230,"BSTAR":0.00059156623,"MEAN_MOTION_DOT":0.00010965,"MEAN_MOTION_DDOT":0}]
